[{"OBJECT_NAME":"STARLINK-5941","OBJECT_ID":"2023-042AD","EPOCH":"2026-03-09T22:34:18.647904","MEAN_MOTION":15.02530088,"ECCENTRICITY":0.0001155,"INCLINATION":43.0041,"RA_OF_ASC_NODE":54.2631,"ARG_OF_PERICENTER":266.8319,"MEAN_ANOMALY":93.2391,"EPHEMERIS_TYPE":0,"CLASSIFICATION_TYPE":"U","NORAD_CAT_ID":56013,"ELEMENT_SET_NO":999,"REV_AT_EPOCH":16295,"BSTAR":6.0580665e-5,"MEAN_MOTION_DOT":6.15e-6,"MEAN_MOTION_DDOT":0},{"OBJECT_NAME":"UNKNOWN","OBJECT_ID":"","EPOCH":"2026-03-09T23:24:41.597280","MEAN_MOTION":14.71188189,"ECCENTRICITY":0.01426246,"INCLINATION":88.7425,"RA_OF_ASC_NODE":262.0534,"ARG_OF_PERICENTER":168.9683,"MEAN_ANOMALY":191.4722,"EPHEMERIS_TYPE":0,"CLASSIFICATION_TYPE":"U","NORAD_CAT_ID":270413,"ELEMENT_SET_NO":999,"REV_AT_EPOCH":8470,"BSTAR":0.00084093495,"MEAN_MOTION_DOT":6.097e-5,"MEAN_MOTION_DDOT":0}]
